{"type":"FeatureCollection","features":[{"type":"Feature","geometry":{"type":"MultiLineString","coordinates":[[[20.50804500000038,54.708935],[20.250059890011443,55.16357807203099],[20.250059890011443,56.178604166899504],[20.475059730619478,57.571890279005004],[21.375059093051448,58.641677771384906],[22.275058456079336,59.16460804545571],[23.175057818511476,59.394489266856795],[23.85005734033541,59.56588346342974],[24.4125569418554,59.6796637072089],[25.31255630428737,59.736409384078485],[27.45005479006346,59.622821769410336],[28.669815,59.445881]]]},"properties":{"id":"kaliningrad-cable","name":"Kaliningrad Cable","feature_id":"kaliningrad-cable-0","owners":"","rfs":"","length":""}},{"type":"Feature","geometry":{"type":"MultiLineString","coordinates":[[[9.637665064777536,63.61946636684087],[9.815742282376135,63.576280591644036],[9.90006722263928,63.48851288982226],[10.293816943703206,63.46341549544039],[10.392059061607597,63.43100204742538]],[[7.160713694473003,62.73722946432855],[7.425068975951234,62.66077045886655],[7.681611762963911,62.563956240896886]],[[9.663153327971344,63.68839703736208],[9.618817421879271,63.67623095645985],[9.637665064777536,63.61946636684087],[9.00006786020731,63.5010867925096],[8.55006817899124,63.42562743079097],[8.16374032766953,63.358030578753215],[7.906025665891121,63.38757389977738],[7.76256873567138,63.22367528305821],[7.72966876017,63.11078338854429],[7.537568896255323,63.12213306123374],[7.200069135343199,63.12213306123374],[6.948609313479835,63.03295735917101],[6.862569374431217,62.91797878525176],[6.975069294735334,62.81536487879316],[7.160713694473003,62.73722946432855],[6.862569374431217,62.76392332890575],[6.637569533823182,62.738168854300056],[6.465792311761874,62.613002975496556],[6.300069772911229,62.66077045886655],[6.187569852607282,62.609058908203394],[6.174386268196514,62.471487316816024],[5.962570011999247,62.50536500000058],[5.850070091695329,62.453382412508034],[5.400070410479259,62.29689073879055],[5.287570488983533,62.244545161699875],[5.343820449731396,62.13958079203451],[5.522335948269301,62.03599154304587],[5.456320370035314,61.9814494856501],[5.49850784014933,61.93554024603813],[5.062570648375498,61.9814494856501],[4.837570808959242,61.92855599360783],[4.725070888655324,61.822493741892],[4.725070888655324,61.71606370959984],[4.97585196040373,61.596307262996845],[4.725070888655324,61.5557270894935],[4.725070888655324,61.448373642843535],[4.950070729263189,61.23255301306608],[5.293429861024407,61.172244368269645],[4.837570808959242,61.01524141470435],[4.725070888655324,60.79643169535018],[4.855539546229977,60.621972493449306],[5.062570649567277,60.57611674038779],[5.287570490175341,60.46539258705809],[5.332770458155238,60.390723705809705]]]},"properties":{"id":"n0r5ke-viking","name":"N0r5ke Viking","feature_id":"n0r5ke-viking-0","owners":"","rfs":"","length":""}},{"type":"Feature","geometry":{"type":"MultiLineString","coordinates":[[[10.216466998498731,63.33348031552026],[9.90006722263928,63.475978110242295],[9.787617302300049,63.576280591644036],[9.675067382031244,63.65127632517789],[9.45006754142321,63.62629973033458],[9.337567621119263,63.65127632517789],[9.225067700815345,63.72607438667927],[9.00006786020731,63.82549832634285],[8.775068019599274,63.87507906940428],[7.875068657167304,63.72607438667927],[6.750069454127299,63.72607438667927],[0.450073917103168,62.29689073879055],[-3.149923532624712,61.23255301306608],[-5.399921938704722,60.35428947498107],[-7.649920344784732,59.6796637072089],[-8.999919388432772,58.75856894488285],[-10.349918432080813,57.571890279005004],[-10.799918113296798,56.345222926819986],[-10.349918432080813,55.33458061322915],[-9.449919069648843,54.559258765782204],[-9.232149223918952,54.207113520678774]]]},"properties":{"id":"celtic-norse","name":"Celtic Norse","feature_id":"celtic-norse-0","owners":"","rfs":"","length":""}},{"type":"Feature","geometry":{"type":"MultiLineString","coordinates":[[[18.062756752613467,59.332308261070324],[18.90006084695932,59.451717318905224],[20.25005989060736,59.56588346342974],[21.375059093647366,59.6796637072089],[22.725058137295406,59.736409384078485],[22.96675718482345,59.82340942681512],[23.175057818511476,59.736409384078485],[23.85005734033541,59.736409384078485],[24.4125569418554,59.849612385021544],[24.932478448538234,60.17116346096182],[25.20005638398345,60.07486799642308],[26.10005574641542,60.07486799642308],[26.775055268239356,60.29859553499119],[26.883648941310668,60.50114056075515]]]},"properties":{"id":"eastern-light","name":"Eastern Light","feature_id":"eastern-light-0","owners":"","rfs":"","length":""}},{"type":"Feature","geometry":{"type":"MultiLineString","coordinates":[[[10.88716652336899,57.256997748271914],[11.025066425679285,57.17764775045606],[11.70006594750339,57.08606597586797],[12.251265557028319,57.10529657756172]]]},"properties":{"id":"energinet-laeso-varberg","name":"Energinet Laeso-Varberg","feature_id":"energinet-laeso-varberg-0","owners":"","rfs":"","length":""}},{"type":"Feature","geometry":{"type":"MultiLineString","coordinates":[[[10.514616787286627,57.24491811100583],[10.687566664767303,57.22335372144116],[10.88716652336899,57.256997748271914]]]},"properties":{"id":"energinet-lyngsa-laeso","name":"Energinet Lyngsa-Laeso","feature_id":"energinet-lyngsa-laeso-0","owners":"","rfs":"","length":""}},{"type":"Feature","geometry":{"type":"MultiLineString","coordinates":[[[10.016367140251418,59.08111069751331],[10.012567142943197,58.93317132635269],[9.90006722263928,58.34773024524864],[9.90006722263928,57.812399750516676],[9.959267180701602,57.58818834277187]]]},"properties":{"id":"skagenfiber-west","name":"Skagenfiber West","feature_id":"skagenfiber-west-0","owners":"","rfs":"","length":""}},{"type":"Feature","geometry":{"type":"MultiLineString","coordinates":[[[10.392059061607597,63.43100204742538],[10.293816943703206,63.475978110242664],[9.90006722263928,63.5010867925096],[9.843817262487306,63.576280591644036],[9.675067382031244,63.676208784313815],[9.506323501571046,63.67623095645985],[9.45006754142321,63.72607438667927],[9.45006754142321,63.82549832634285],[9.618817421879271,63.9245724837925],[9.90006722263928,64.12167519439029],[10.237566983551233,64.31739001144422],[10.462566824159268,64.46326983353543],[10.80006658507125,64.53591955943637],[11.025066425679285,64.70468599661166],[11.237370962780744,64.86207950442943],[11.475066106895355,64.96778031868584],[11.70006594750339,65.01533984410813],[11.925065788111255,65.13386892664585],[12.207765587844165,65.47355705315002],[12.178190608795347,65.55616358500063],[12.262565549023208,65.6259608208081],[12.543815349783216,65.83404693088383],[12.631465287691299,66.02153874887077],[12.768815190391422,66.1544195909438],[13.0182650136789,66.19806628775794],[12.993815030999286,66.3808044991722],[13.05006499115126,66.44832399589339],[12.937565070847313,66.56045213116752],[13.05006499115126,66.7165854620128],[13.50006467236733,66.95995474248622],[13.9500643535834,67.13543790495441],[14.4000640347993,67.2860055353949],[14.512563955103388,67.4394931950778],[14.906313676167343,67.61151472096557],[15.131313516775379,67.65432532704776],[15.356313357383414,67.78229156045435],[15.581313197991449,67.90956187665077],[15.887562981041043,67.97293705344714],[16.143812799511437,68.05716856580699],[16.171887779622978,68.1411682869288],[16.127072811370283,68.22074777678267],[16.06516285522781,68.28972225489503],[16.152422793411944,68.36187412811796],[16.31256267996733,68.38642806305168],[16.66881242759669,68.4173574082686],[17.073261876821988,68.4078545509303],[17.560022733754863,68.42054850557756]]]},"properties":{"id":"polar-circle-cable","name":"Polar Circle Cable","feature_id":"polar-circle-cable-0","owners":"","rfs":"","length":""}},{"type":"Feature","geometry":{"type":"MultiLineString","coordinates":[[[12.371865471594333,55.256124793284926],[12.825065150543395,55.14215100378169],[14.4000640347993,55.07780072164758],[14.708363816396854,55.101035976100604]]]},"properties":{"id":"rnne-rdvig","name":"R\u00f8nne-R\u00f8dvig","feature_id":"rnne-rdvig-0","owners":"","rfs":"","length":""}},{"type":"Feature","geometry":{"type":"MultiLineString","coordinates":[[[15.908662966093914,56.74380010331279],[16.087562839359293,56.59379297841909],[16.20006275966341,56.345222926819986],[16.31256267996733,56.03221697111684],[17.325061962703415,55.71665209382169],[20.475059731215396,55.71665209382169],[21.14995925311044,55.69574860959892]]]},"properties":{"id":"nordbalt","name":"NordBalt","feature_id":"nordbalt-0","owners":"","rfs":"","length":""}},{"type":"Feature","geometry":{"type":"MultiLineString","coordinates":[[[7.996258571315195,58.15106571642474],[8.437568258687293,57.93205658695149],[8.775068019599274,57.571890279005004],[9.112567780511228,57.14714566273739],[9.112567780511228,56.840738642145595],[9.225067700815345,56.717468482041056],[9.281317660967318,56.59379297841909],[9.337567621119263,56.5628106790318],[9.611687426930246,56.510791530389184]]]},"properties":{"id":"skagerrak-4","name":"Skagerrak 4","feature_id":"skagerrak-4-0","owners":"","rfs":"","length":""}},{"type":"Feature","geometry":{"type":"MultiLineString","coordinates":[[[24.93247657353959,60.171163188940454],[24.4125569418554,59.736409384078485],[23.85005734033541,59.622821769410336],[23.175057818511476,59.451717318905224],[22.275058456079336,59.22222391484422],[21.15005925303933,58.641677771384906],[20.25005989060736,57.571890279005004],[19.125060687567355,56.46971137654694],[17.325061962703415,55.84318584148099],[15.30006339723144,55.58970711313168],[14.4000640347993,55.33458061322915],[13.50006467236733,54.94878902385568],[12.60006530993536,54.68951871778469],[12.15006562871929,54.29748595281848],[12.037565708415343,54.165971787151676],[12.132485641173247,54.079177416570104]],[[23.175057818511476,59.451717318905224],[22.95005797790344,59.736409384078485],[22.966757966073033,59.82340864139897]]]},"properties":{"id":"c-lion1","name":"C-Lion1","feature_id":"c-lion1-0","owners":"","rfs":"","length":""}},{"type":"Feature","geometry":{"type":"MultiLineString","coordinates":[[[11.940005777527603,54.5772362672833],[12.60006530993536,54.624440877767114],[13.50006467236733,54.88412743786745],[14.85006371601537,54.94878902385568],[14.992153615357665,55.031146415148356]],[[13.828284439853434,55.43133165094372],[13.9500643535834,55.33458061322915],[14.4000640347993,55.0133467567922],[14.85006371601537,55.0133467567922],[14.992153615357665,55.031146415148356],[15.075063556623405,54.88412743786745],[15.412563317535358,54.559258765782204],[15.575063202418846,54.17263354490274]]]},"properties":{"id":"baltica","name":"Baltica","feature_id":"baltica-0","owners":"","rfs":"","length":""}},{"type":"Feature","geometry":{"type":"MultiLineString","coordinates":[[[21.570078955493614,57.389720408424836],[21.15005925303933,57.39045872350093],[19.35006052817539,57.752422007042185],[19.04186074650724,57.86298070545203],[18.90006084695932,58.05131589106017],[18.56256108604734,58.641677771384906],[18.56256108604734,59.1068949571908],[18.337561245439304,59.279742670960275],[18.062761440110165,59.332309018187175]]]},"properties":{"id":"sweden-latvia","name":"Sweden-Latvia","feature_id":"sweden-latvia-0","owners":"","rfs":"","length":""}},{"type":"Feature","geometry":{"type":"MultiLineString","coordinates":[[[21.082679300772185,56.02850685047366],[20.70005957182343,56.15772578558838],[19.125060687567355,57.32978111682823],[18.829450896980262,57.43973589319194]]]},"properties":{"id":"bcs-east-west-interlink","name":"BCS East-West Interlink","feature_id":"bcs-east-west-interlink-0","owners":"","rfs":"","length":""}},{"type":"Feature","geometry":{"type":"MultiLineString","coordinates":[[[24.93247657353959,60.171163188940454],[24.4125569418554,59.90606992457441],[23.85005734033541,59.79305890746801],[22.966757966073033,59.82340864139897],[22.61255821699146,59.90606992457441],[22.275058456079336,60.01869762196867],[22.298598439403577,60.305754431168936],[22.05005861547147,60.07486799642308],[21.375059093647366,59.849612385021544],[20.25005989060736,59.736409384078485],[19.91256012969538,59.962431634152296],[19.93776011184346,60.11403575461435],[19.687560289087344,59.962431634152296],[19.125060687567355,59.622821769410336],[18.688360996929788,59.29276676569168]]]},"properties":{"id":"bcs-north---phase-1","name":"BCS North - Phase 1","feature_id":"bcs-north---phase-1-0","owners":"","rfs":"","length":""}},{"type":"Feature","geometry":{"type":"MultiLineString","coordinates":[[[26.883645191313576,60.501141253200814],[27.00005510884756,60.35428947498107],[27.168804989303453,60.130942866098394],[27.45005479006346,59.962431634152296],[28.125054311887567,59.849612385021544],[28.49995404630505,59.799986209492914]],[[26.883645191313576,60.501141253200814],[26.775055268239356,60.35428947498107],[26.10005574641542,60.130942866098394],[25.20005638398345,60.130942866098394],[24.93247657353959,60.171163188940454]]]},"properties":{"id":"bcs-north---phase-2","name":"BCS North - Phase 2","feature_id":"bcs-north---phase-2-0","owners":"","rfs":"","length":""}},{"type":"Feature","geometry":{"type":"MultiLineString","coordinates":[[[21.616368922701383,63.095388681301586],[21.375059093647366,63.09669186983908],[21.15005925303933,63.09669186983908],[20.70005957182343,63.27431307074423],[20.475059731215396,63.526173423791136],[20.394303098455197,63.70251569426429],[20.26304988140535,63.82595266205354]]]},"properties":{"id":"botnia","name":"Botnia","feature_id":"botnia-0","owners":"","rfs":"","length":""}},{"type":"Feature","geometry":{"type":"MultiLineString","coordinates":[[[12.955535058117334,55.77057758158506],[12.716565227405795,55.779970327098255],[12.54557534853663,55.720775126305966]]]},"properties":{"id":"danica-north","name":"Danica North","feature_id":"danica-north-0","owners":"","rfs":"","length":""}},{"type":"Feature","geometry":{"type":"MultiLineString","coordinates":[[[14.966663633414868,55.01278483536163],[14.962563636319288,54.88412743786745],[15.30006339723144,54.559258765782204],[16.062272857274962,54.260143483877215]]]},"properties":{"id":"denmark-poland-2","name":"Denmark-Poland 2","feature_id":"denmark-poland-2-0","owners":"","rfs":"","length":""}},{"type":"Feature","geometry":{"type":"MultiLineString","coordinates":[[[12.592155315538946,56.03063574342079],[12.643960278839899,56.03727869909534],[12.695765242140624,56.043920511503416]]]},"properties":{"id":"denmark-sweden-15","name":"Denmark-Sweden 15","feature_id":"denmark-sweden-15-0","owners":"","rfs":"","length":""}},{"type":"Feature","geometry":{"type":"MultiLineString","coordinates":[[[12.273115541549828,55.576074176494586],[12.375065469327325,55.526080187888624],[12.543815349783216,55.462350188098384],[12.712565230239278,55.462350188098384],[12.963935052166732,55.47137495553801]]]},"properties":{"id":"denmark-sweden-16","name":"Denmark-Sweden 16","feature_id":"denmark-sweden-16-0","owners":"","rfs":"","length":""}},{"type":"Feature","geometry":{"type":"MultiLineString","coordinates":[[[12.536885354692657,56.0750809772897],[12.562760336362658,56.105017291564536],[12.588635318032487,56.134930342754785]]]},"properties":{"id":"denmark-sweden-17","name":"Denmark-Sweden 17","feature_id":"denmark-sweden-17-0","owners":"","rfs":"","length":""}},{"type":"Feature","geometry":{"type":"MultiLineString","coordinates":[[[12.592155315538946,56.03063574342079],[12.643960278839899,56.03727869909534],[12.695765242140624,56.043920511503416]]]},"properties":{"id":"denmark-sweden-18","name":"Denmark-Sweden 18","feature_id":"denmark-sweden-18-0","owners":"","rfs":"","length":""}},{"type":"Feature","geometry":{"type":"MultiLineString","coordinates":[[[11.940005777527603,54.5772362672833],[11.925065788111255,54.49397229925464],[11.925065788111255,54.29748595281848],[12.132485641173247,54.079177416570104]]]},"properties":{"id":"elektra-globalconnect-1-gc1","name":"Elektra-GlobalConnect 1 (GC1)","feature_id":"elektra-globalconnect-1-gc1-0","owners":"","rfs":"","length":""}},{"type":"Feature","geometry":{"type":"MultiLineString","coordinates":[[[11.212566292852728,54.49618504236204],[11.25006626628732,54.59302163749791],[11.35856618942509,54.66306630403628]]]},"properties":{"id":"fehmarn-blt","name":"Fehmarn B\u00e4lt","feature_id":"fehmarn-blt-0","owners":"","rfs":"","length":""}},{"type":"Feature","geometry":{"type":"MultiLineString","coordinates":[[[24.752496701038922,59.43639985926242],[25.087556463679334,59.6796637072089],[25.20005638398345,59.962431634152296],[25.087556463679334,60.07486799642308],[24.93247657353959,60.171163188940454]]]},"properties":{"id":"finland-estonia-2-eesf-2","name":"Finland-Estonia 2 (EESF-2)","feature_id":"finland-estonia-2-eesf-2-0","owners":"","rfs":"","length":""}},{"type":"Feature","geometry":{"type":"MultiLineString","coordinates":[[[11.940005777527603,54.5772362672833],[12.037565708415343,54.49397229925464],[12.037565708415343,54.29748595281848],[12.149575629066447,54.19157680986666]]]},"properties":{"id":"germany-denmark-3","name":"Germany-Denmark 3","feature_id":"germany-denmark-3-0","owners":"","rfs":"","length":""}},{"type":"Feature","geometry":{"type":"MultiLineString","coordinates":[[[10.516666785834417,57.33104423288563],[10.80006658507125,57.4510360539646],[11.70006594750339,57.51151320633309],[12.076235681021274,57.48768909927358]]]},"properties":{"id":"globalconnect-2-gc2","name":"GlobalConnect 2 (GC2)","feature_id":"globalconnect-2-gc2-0","owners":"","rfs":"","length":""}},{"type":"Feature","geometry":{"type":"MultiLineString","coordinates":[[[11.149386337610053,55.32605364145988],[11.025066425679285,55.33458061322915],[10.799576585418407,55.32441516057577]]]},"properties":{"id":"globalconnect-3-gc3","name":"GlobalConnect 3 (GC3)","feature_id":"globalconnect-3-gc3-0","owners":"","rfs":"","length":""}},{"type":"Feature","geometry":{"type":"MultiLineString","coordinates":[[[11.940005777527603,54.5772362672833],[11.812565867807308,54.49397229925464],[11.812565867807308,54.29748595281848],[12.132485641173247,54.079177416570104]]]},"properties":{"id":"globalconnect-kpn","name":"GlobalConnect-KPN","feature_id":"globalconnect-kpn-0","owners":"","rfs":"","length":""}},{"type":"Feature","geometry":{"type":"MultiLineString","coordinates":[[[12.415005441033458,55.647554790974624],[12.487565389631243,55.55790652931407],[12.60006530993536,55.526080187888624],[12.712565230239278,55.526080187888624],[12.916665085653108,55.53356806062777]]]},"properties":{"id":"ip-only-denmark-sweden","name":"IP-Only Denmark-Sweden","feature_id":"ip-only-denmark-sweden-0","owners":"","rfs":"","length":""}},{"type":"Feature","geometry":{"type":"MultiLineString","coordinates":[[[10.514616787286627,57.24491811100583],[10.687566664767303,57.23857647500998],[10.966956466845033,57.272647240874335]],[[11.199286302260361,57.31375088583721],[11.70006594750339,57.02488552657641],[12.15006562871929,56.840738642145595],[12.68336525092488,56.683369081239334]]]},"properties":{"id":"kattegat-2","name":"Kattegat 2","feature_id":"kattegat-2-0","owners":"","rfs":"","length":""}},{"type":"Feature","geometry":{"type":"MultiLineString","coordinates":[[[21.570078955493614,57.389720408424836],[21.15005925303933,57.4510360539646],[19.575060368783426,58.05131589106017],[18.45006116574342,58.40671668748652],[18.00006148452735,58.75856894488285],[17.946541522441493,58.90309907219313]]]},"properties":{"id":"latvia-sweden-1-lv-se-1","name":"Latvia-Sweden 1 (LV-SE 1)","feature_id":"latvia-sweden-1-lv-se-1-0","owners":"","rfs":"","length":""}},{"type":"Feature","geometry":{"type":"MultiLineString","coordinates":[[[12.640495281294534,56.07069401721387],[12.668130261717408,56.05730958788601],[12.695765242140624,56.043920511503416],[12.68302025116924,56.02474048982961],[12.670275260198025,56.00555093561886],[12.64176028039833,56.01947311565067],[12.613245300598663,56.03339027842571],[12.6268702909465,56.05204665760559],[12.640495281294534,56.07069401721387]]]},"properties":{"id":"scandinavian-ring-north","name":"Scandinavian Ring North","feature_id":"scandinavian-ring-north-0","owners":"","rfs":"","length":""}},{"type":"Feature","geometry":{"type":"MultiLineString","coordinates":[[[12.670275260198025,55.5937361749767],[12.825115150508111,55.58967885738048],[12.918815084129932,55.55680364719609],[12.768815190391422,55.55790652931407],[12.670275260198025,55.5937361749767]]]},"properties":{"id":"scandinavian-ring-south","name":"Scandinavian Ring South","feature_id":"scandinavian-ring-south-0","owners":"","rfs":"","length":""}},{"type":"Feature","geometry":{"type":"MultiLineString","coordinates":[[[24.752496701038922,59.43639985926242],[24.4125569418554,59.50884868221257],[23.85005734033541,59.451717318905224],[23.175057818511476,59.22222391484422],[22.736388129269216,59.00008283504653],[22.05005861547147,59.1068949571908],[20.25005989060736,59.279742670960275],[18.90006084695932,59.279742670960275],[18.688360996929788,59.29276676569168]]]},"properties":{"id":"sweden-estonia-ee-s-1","name":"Sweden-Estonia (EE-S 1)","feature_id":"sweden-estonia-ee-s-1-0","owners":"","rfs":"","length":""}},{"type":"Feature","geometry":{"type":"MultiLineString","coordinates":[[[18.701330987741642,59.75975559219617],[19.125060687567355,59.736409384078485],[20.25005989060736,59.6796637072089],[21.375059093647366,59.79305890746801],[21.828885165385003,60.186073480185],[21.989438792538294,60.284564842450095],[22.259238467286707,60.449407251735124]]]},"properties":{"id":"sweden-finland-4-sfs-4","name":"Sweden-Finland 4 (SFS-4)","feature_id":"sweden-finland-4-sfs-4-0","owners":"","rfs":"","length":""}},{"type":"Feature","geometry":{"type":"MultiLineString","coordinates":[[[19.93776011184346,60.11403575461435],[19.575060368783426,60.01869762196867],[19.125060687567355,59.962431634152296],[18.816660906040738,59.98346880444112]]]},"properties":{"id":"sweden-finland-link-sfl","name":"Sweden-Finland Link (SFL)","feature_id":"sweden-finland-link-sfl-0","owners":"","rfs":"","length":""}},{"type":"Feature","geometry":{"type":"MultiLineString","coordinates":[[[21.375059093647366,59.53737813890871],[20.25005989060736,59.451717318905224],[18.90006084695932,59.33716441962133],[18.062761440110165,59.332309018187175],[18.90006084695932,59.394489266856795],[20.25005989060736,59.50884868221257],[21.375059093647366,59.622821769410336],[23.85005734033541,59.6796637072089],[24.4125569418554,59.79305890746801],[24.93247657353959,60.171163188940454],[24.918806583223443,60.07486799642308],[24.86255662307147,59.962431634152296],[24.75005670276738,59.6796637072089],[24.752496701038922,59.43639985926242],[24.4125569418554,59.56588346342974],[23.85005734033541,59.56588346342974],[21.375059093647366,59.53737813890871]]]},"properties":{"id":"baltic-sea-submarine-cable","name":"Baltic Sea Submarine Cable","feature_id":"baltic-sea-submarine-cable-0","owners":"","rfs":"","length":""}},{"type":"Feature","geometry":{"type":"MultiLineString","coordinates":[[[24.93247657353959,60.171163188940454],[24.975056543375416,60.07486799642308],[24.975056543375416,59.962431634152296],[24.86255662307147,59.6796637072089],[24.752496701038922,59.42371055209489],[24.975056543375416,59.6796637072089],[25.087556463679334,59.962431634152296],[25.03130650352736,60.07486799642308],[24.93247657353959,60.171163188940454]]]},"properties":{"id":"finland-estonia-connection-fec","name":"Finland Estonia Connection (FEC)","feature_id":"finland-estonia-connection-fec-0","owners":"","rfs":"","length":""}},{"type":"Feature","geometry":{"type":"MultiLineString","coordinates":[[[24.276617038156644,59.40095452286678],[24.4125569418554,59.6796637072089],[24.75005670276738,59.962431634152296],[24.93247657353959,60.171163188940454]]]},"properties":{"id":"finland-estonia-3-eesf-3","name":"Finland-Estonia 3 (EESF-3)","feature_id":"finland-estonia-3-eesf-3-0","owners":"","rfs":"","length":""}},{"type":"Feature","geometry":{"type":"MultiLineString","coordinates":[[[21.011189351416164,56.508369140884156],[20.81255949212735,56.407518054313044],[20.81255949212735,56.15772578558838],[21.082679300772185,56.02850685047366]]]},"properties":{"id":"bcs-east","name":"BCS East","feature_id":"bcs-east-0","owners":"","rfs":"","length":""}}]}