{"type":"FeatureCollection","features":[{"type":"Feature","geometry":{"type":"LineString","coordinates":[[24.9,60.13],[24.89429,60.11429],[24.88857,60.09857],[24.88286,60.08286],[24.87714,60.06714],[24.87143,60.05143],[24.86571,60.03571],[24.86,60.02],[24.8525,60.0025],[24.845,59.985],[24.8375,59.9675],[24.83,59.95],[24.8225,59.9325],[24.815,59.915],[24.8075,59.8975],[24.8,59.88],[24.795,59.864],[24.79,59.848],[24.785,59.832],[24.78,59.816],[24.775,59.8],[24.77,59.784],[24.765,59.768],[24.76,59.752],[24.755,59.736],[24.75,59.72],[24.747,59.703],[24.744,59.686],[24.741,59.669],[24.738,59.652],[24.735,59.635],[24.732,59.618],[24.729,59.601],[24.726,59.584],[24.723,59.567],[24.72,59.55]]},"properties":{"cable_id":"demo:gof-1","name":"DEMO Helsinki-Tallinn A","positional_class":"CHARTED","source":"DEMO synthetic geometry - not a real cable","owners":"","rfs":"","length_km":null,"stated_accuracy_m":50.0}},{"type":"Feature","geometry":{"type":"LineString","coordinates":[[26.6,60.3],[26.57857,60.28571],[26.55714,60.27143],[26.53571,60.25714],[26.51429,60.24286],[26.49286,60.22857],[26.47143,60.21429],[26.45,60.2],[26.42857,60.18571],[26.40714,60.17143],[26.38571,60.15714],[26.36429,60.14286],[26.34286,60.12857],[26.32143,60.11429],[26.3,60.1],[26.27857,60.08571],[26.25714,60.07143],[26.23571,60.05714],[26.21429,60.04286],[26.19286,60.02857],[26.17143,60.01429],[26.15,60.0],[26.12857,59.98571],[26.10714,59.97143],[26.08571,59.95714],[26.06429,59.94286],[26.04286,59.92857],[26.02143,59.91429],[26.0,59.9],[25.975,59.8875],[25.95,59.875],[25.925,59.8625],[25.9,59.85],[25.875,59.8375],[25.85,59.825],[25.825,59.8125],[25.8,59.8],[25.775,59.7875],[25.75,59.775],[25.725,59.7625],[25.7,59.75],[25.675,59.7375],[25.65,59.725],[25.625,59.7125],[25.6,59.7]]},"properties":{"cable_id":"demo:gof-2","name":"DEMO Gulf of Finland East","positional_class":"CHARTED","source":"DEMO synthetic geometry - not a real cable","owners":"","rfs":"","length_km":null,"stated_accuracy_m":50.0}}]}