{"type":"FeatureCollection","features":[{"type":"Feature","geometry":{"type":"Polygon","coordinates":[[[24.947361041538063,60.10946894883933],[24.941620696531945,60.093752426205974],[24.935880378776186,60.07803590412326],[24.930140088228004,60.0623193825912],[24.924399824844684,60.04660286160981],[24.918659588583637,60.03088634117908],[24.91291937940232,60.01516982129899],[24.91258896282113,60.01433883975304],[24.905062488754027,59.9968418130794],[24.897533530958505,59.97933893535214],[24.89000460662087,59.96183605847505],[24.882475715682897,59.944333182448084],[24.874946858086474,59.926830307271295],[24.86741803377362,59.909327432944636],[24.859889242686517,59.89182455946807],[24.852678473910103,59.875061330650404],[24.84788857363067,59.859810787264905],[24.842862576537954,59.84380881362155],[24.83783660697815,59.827806840448886],[24.832810664907594,59.81180486774691],[24.82778475028274,59.795802895515614],[24.822758863060077,59.779800923755005],[24.817733003196246,59.763798952465116],[24.812707170647922,59.74779698164591],[24.80768136537192,59.73179501129744],[24.80293760859336,59.71669140219397],[24.800072276322012,59.70059854053245],[24.797045161192887,59.683597332308246],[24.794018076616382,59.66659612435618],[24.790991022541267,59.64959491667629],[24.78796399891644,59.63259370926855],[24.784937005690907,59.61559250213299],[24.781910042813788,59.59859129526964],[24.778883110234325,59.58159008867847],[24.77585620790187,59.56458888235954],[24.772829335765874,59.547587676312844],[24.770883536062303,59.542401963249524],[24.766983616616855,59.53750854281867],[24.761280124335947,59.53309530113297],[24.75399261469957,59.529331618605354],[24.745401157895905,59.526361893928495],[24.735835573838468,59.524300031021205],[24.72566280997361,59.52322509532564],[24.715272938905503,59.523178301297136],[24.705064298885556,59.52416144293214],[24.69542832840923,59.52613682547429],[24.6867346561535,59.52902870082501],[24.679316999149354,59.53272615348913],[24.673460395518845,59.53708732993477],[24.66939025367113,59.54194485384321],[24.667263638235806,59.54711222462137],[24.66716313536014,59.55239095840487],[24.670136469805417,59.56939094893624],[24.67310956279236,59.58638973071099],[24.676082625527453,59.60338851219962],[24.679055657960124,59.62038729340266],[24.68202866003959,59.63738607432002],[24.68500163171491,59.65438485495138],[24.687974572935175,59.67138363529711],[24.690947483649193,59.68838241535692],[24.69392036380579,59.70538119513111],[24.69689342517618,59.72238118520562],[24.697331217977204,59.72418582497593],[24.702306049015224,59.7401858290914],[24.70728023584561,59.75618384746699],[24.712254395395995,59.77218186535961],[24.717228527623146,59.788179882769185],[24.72220263248378,59.80417789969569],[24.727176709934508,59.820175916139256],[24.732150759931795,59.83617393209966],[24.7371247824321,59.85217194757707],[24.742098777391707,59.86816996257134],[24.747073363409175,59.884169965882755],[24.74762168816325,59.885657501350664],[24.755094165271657,59.90315753829732],[24.76256536222428,59.92065465247366],[24.770036525938213,59.93815176578476],[24.777507656355606,59.95564887823064],[24.784978753418486,59.97314598981128],[24.792449817068704,59.990643100526555],[24.799920847247986,60.008140210376496],[24.807216088014552,60.02522591586949],[24.81275439104041,60.04052330145511],[24.81844271700872,60.05623534116627],[24.82413101584588,60.071947380314555],[24.82981928750925,60.087659418899875],[24.835507531956114,60.10337145692226],[24.841195749143687,60.11908349438169],[24.8468847578505,60.13479779194617],[24.84977832182962,60.13987517933405],[24.854603587465466,60.14457331166231],[24.86117569501139,60.148711445362984],[24.869242306883567,60.152130317956555],[24.878493270247862,60.15469830443121],[24.888572559776005,60.156316512071925],[24.899092038074023,60.15692261235952],[24.909646493008676,60.156493257858365],[24.919829355486534,60.155044987897476],[24.92924847134541,60.15263358694414],[24.937541298634905,60.14935192125194],[24.944388926831476,60.14532633992115],[24.94952836598249,60.140711783292566],[24.952762628461013,60.13568579217322],[24.953968219791903,60.13044165368771],[24.953099762894,60.12518095192798],[24.947361041538063,60.10946894883933]]]},"properties":{"cable_id":"demo:gof-1","name":"DEMO Helsinki-Tallinn A","positional_class":"CHARTED"}},{"type":"Feature","geometry":{"type":"Polygon","coordinates":[[[26.62205334592209,60.26963030223828],[26.600599058024383,60.25534001157778],[26.57914479505038,60.24104972416635],[26.557690556964104,60.226759440002226],[26.536236343729797,60.212469159083675],[26.51478215531171,60.19817888140896],[26.493327991674114,60.18388860697636],[26.47187385278141,60.16959833578412],[26.45041973859798,60.15530806783052],[26.428965649088422,60.141017803113826],[26.40751158421719,60.1267275416323],[26.386057543949008,60.112437283384224],[26.364603528248523,60.098147028367826],[26.34314953708053,60.08385677658143],[26.321695570409833,60.06956652802325],[26.300241628201334,60.05527628269158],[26.278787710419966,60.040986040584656],[26.257333817030702,60.02669580170077],[26.235879947998715,60.012405566038176],[26.21442610328908,59.998115333595145],[26.192972282867032,59.98382510436995],[26.17151848669783,59.96953487836085],[26.15006471474681,59.95524465556609],[26.12861096697933,59.940954435983954],[26.107157243360913,59.926664219612725],[26.085703543857015,59.91237400645062],[26.064249868433254,59.89808379649593],[26.04279621705525,59.88379358974694],[26.037780311864577,59.88090382119385],[26.012780463001093,59.86841095646035],[25.98775911541084,59.85590734205044],[25.962737786691164,59.843403730694604],[25.93771647681716,59.83090012239079],[25.912695185763557,59.81839651713692],[25.887673913505527,59.805892914930965],[25.86265266001792,59.79338931577084],[25.837631425275912,59.78088571965451],[25.812610209254505,59.768382126579915],[25.787589011928937,59.755878536545026],[25.762567833274268,59.74337494954775],[25.73754667326578,59.73087136558604],[25.71252553187869,59.71836778465787],[25.687504409088312,59.70586420676119],[25.662483304869937,59.693360631893924],[25.63746221919893,59.680857060054045],[25.629356226204425,59.67753102324157],[25.62012432808319,59.67506800785081],[25.610120766184703,59.673562468787736],[25.59972917774034,59.67307213215022],[25.589347973528714,59.67361579671943],[25.579375168700516,59.6751726182991],[25.570193228287938,59.677682903381495],[25.562154488436924,59.681050382753924],[25.555567695560704,59.685145880754845],[25.550686168655986,59.68981224376133],[25.54769803548212,59.69487034391559],[25.546718922104407,59.70012593277779],[25.547787388908354,59.705377086113586],[25.550863306724054,59.71042195678914],[25.55582925704919,59.71506653891607],[25.562494924206597,59.719132143792095],[25.58748449013126,59.73163391317943],[25.612463356620474,59.7441303331046],[25.63744220450388,59.756626749992925],[25.662421033756644,59.76912316384226],[25.687399844354054,59.781619574650556],[25.712378636271414,59.79411598241583],[25.73735740948375,59.80661238713596],[25.762336163966197,59.81910878880883],[25.787314899694085,59.831605187432544],[25.812293616642027,59.84410158300479],[25.837272314785437,59.85659797552376],[25.862250994099057,59.869094364987184],[25.887229654557864,59.88159075139307],[25.9122082961368,59.894087134739344],[25.937186918810667,59.906583515023954],[25.959463408890755,59.91772875234624],[25.97857408857771,59.9304793796202],[25.999977525799505,59.94476059044142],[26.021380938906375,59.959041798044424],[26.042784327863874,59.97332300242747],[26.064187692637386,59.987604203588745],[26.085591033192376,60.00188540152655],[26.10699434949418,60.01616659623911],[26.128397641508084,60.030447787724675],[26.149800909199268,60.04472897598146],[26.171204152532948,60.05901016100779],[26.192607371474207,60.07329134280184],[26.21401056598801,60.087572521361864],[26.235413736039405,60.10185369668616],[26.256816881593274,60.116134868772946],[26.278220002614386,60.13041603762042],[26.299623099067645,60.144697203226904],[26.32102617091764,60.15897836559063],[26.34242921812914,60.17325952470984],[26.36383224066655,60.187540680582735],[26.38523523849463,60.20182183320765],[26.406638211577615,60.21610298258277],[26.428041159880003,60.23038412870633],[26.44944408336603,60.24466527157659],[26.470846982000126,60.25894641119188],[26.492249855746394,60.27322754755037],[26.513652704568713,60.287508680650184],[26.535055528431617,60.301789810489865],[26.55646699296146,60.31607671604749],[26.563624959488667,60.31998259857814],[26.572183325724296,60.323120283192836],[26.58181290722247,60.325368956803075],[26.592143012291455,60.32664201589156],[26.60277578383115,60.326890423374415],[26.613301622583574,60.32610461049894],[26.62331507860869,60.32431484801623],[26.632430577183996,60.32159007183534],[26.64029735263397,60.31803520998391],[26.646612998395888,60.31378711725645],[26.651135101900653,60.30900927883431],[26.653690515168403,60.30388549208853],[26.65418191186913,60.29861277479169],[26.65259139375779,60.29339377661303],[26.648981028348782,60.2884289881204],[26.643490320044894,60.28390904716606],[26.62205334592209,60.26963030223828]]]},"properties":{"cable_id":"demo:gof-2","name":"DEMO Gulf of Finland East","positional_class":"CHARTED"}}]}