{"type":"FeatureCollection","features":[{"type":"Feature","geometry":{"type":"Point","coordinates":[25.30012,59.85996]},"properties":{"mmsi":970100001,"name":"DEMO VESSEL ALFA","ship_type":"Cargo","sog":11.1,"cog":99.1,"nav_status":"Under way using engine","ts":"2026-08-02T21:58:00Z","in_corridor":false,"nearest_cable":"DEMO Gulf of Finland East","nearest_m":24455}},{"type":"Feature","geometry":{"type":"Point","coordinates":[26.15349,59.98988]},"properties":{"mmsi":970100002,"name":"DEMO VESSEL BRAVO","ship_type":"Tanker","sog":0.4,"cog":125.0,"nav_status":"At anchor","ts":"2026-08-03T12:00:00Z","in_corridor":true,"nearest_cable":"DEMO Gulf of Finland East","nearest_m":1142}},{"type":"Feature","geometry":{"type":"Point","coordinates":[24.69912,59.88326]},"properties":{"mmsi":970100003,"name":"DEMO VESSEL CHARLIE","ship_type":"Other","sog":4.0,"cog":269.1,"nav_status":"Under way using engine","ts":"2026-08-02T14:50:00Z","in_corridor":false,"nearest_cable":"DEMO Helsinki-Tallinn A","nearest_m":5640}},{"type":"Feature","geometry":{"type":"Point","coordinates":[26.69976,60.28026]},"properties":{"mmsi":970100004,"name":"DEMO VESSEL DELTA","ship_type":"Cargo","sog":10.0,"cog":74.7,"nav_status":"Under way using engine","ts":"2026-08-01T20:36:00Z","in_corridor":false,"nearest_cable":"DEMO Gulf of Finland East","nearest_m":5919}},{"type":"Feature","geometry":{"type":"Point","coordinates":[26.89972,60.1997]},"properties":{"mmsi":970100005,"name":"DEMO VESSEL ECHO","ship_type":"Passenger","sog":13.3,"cog":71.5,"nav_status":"Under way using engine","ts":"2026-08-03T14:15:00Z","in_corridor":false,"nearest_cable":"DEMO Gulf of Finland East","nearest_m":19946}},{"type":"Feature","geometry":{"type":"Point","coordinates":[27.63015,60.61043]},"properties":{"mmsi":970100006,"name":"DEMO VESSEL FOXTROT","ship_type":"Cargo","sog":5.8,"cog":80.9,"nav_status":"Under way using engine","ts":"2026-08-03T16:10:00Z","in_corridor":false,"nearest_cable":"DEMO Gulf of Finland East","nearest_m":66194}},{"type":"Feature","geometry":{"type":"Point","coordinates":[26.25041,59.63865]},"properties":{"mmsi":970200000,"name":"DEMO NORDKAP","ship_type":"Cargo","sog":0.0,"cog":167.6,"nav_status":"At anchor","ts":"2026-08-03T21:36:00Z","in_corridor":false,"nearest_cable":"DEMO Gulf of Finland East","nearest_m":30520}},{"type":"Feature","geometry":{"type":"Point","coordinates":[25.60068,59.83415]},"properties":{"mmsi":970200001,"name":"DEMO SUOMI STAR","ship_type":"Tanker","sog":12.8,"cog":338.6,"nav_status":"Moored","ts":"2026-08-03T21:36:00Z","in_corridor":false,"nearest_cable":"DEMO Gulf of Finland East","nearest_m":10574}},{"type":"Feature","geometry":{"type":"Point","coordinates":[26.55673,59.71082]},"properties":{"mmsi":970200002,"name":"DEMO BALTIC TRADER","ship_type":"Passenger","sog":11.0,"cog":309.3,"nav_status":"Under way using engine","ts":"2026-08-03T21:36:00Z","in_corridor":false,"nearest_cable":"DEMO Gulf of Finland East","nearest_m":37518}},{"type":"Feature","geometry":{"type":"Point","coordinates":[24.95111,60.00814]},"properties":{"mmsi":970200003,"name":"DEMO VIRE","ship_type":"Other","sog":10.8,"cog":214.2,"nav_status":"Moored","ts":"2026-08-03T21:36:00Z","in_corridor":false,"nearest_cable":"DEMO Helsinki-Tallinn A","nearest_m":5232}},{"type":"Feature","geometry":{"type":"Point","coordinates":[26.46419,59.5856]},"properties":{"mmsi":970200004,"name":"DEMO KALLAVESI","ship_type":"Cargo","sog":11.2,"cog":293.7,"nav_status":"Engaged in fishing","ts":"2026-08-03T21:36:00Z","in_corridor":false,"nearest_cable":"DEMO Gulf of Finland East","nearest_m":43147}},{"type":"Feature","geometry":{"type":"Point","coordinates":[26.06711,59.62096]},"properties":{"mmsi":970200005,"name":"DEMO AURORA LINE","ship_type":"Tanker","sog":10.7,"cog":207.6,"nav_status":"Under way using engine","ts":"2026-08-03T21:36:00Z","in_corridor":false,"nearest_cable":"DEMO Gulf of Finland East","nearest_m":24696}},{"type":"Feature","geometry":{"type":"Point","coordinates":[24.35686,59.59203]},"properties":{"mmsi":970200006,"name":"DEMO PORVOO","ship_type":"Passenger","sog":0.1,"cog":133.4,"nav_status":"At anchor","ts":"2026-08-03T21:36:00Z","in_corridor":false,"nearest_cable":"DEMO Helsinki-Tallinn A","nearest_m":20797}},{"type":"Feature","geometry":{"type":"Point","coordinates":[24.46374,60.32541]},"properties":{"mmsi":970200007,"name":"DEMO SAIMAA","ship_type":"Other","sog":14.6,"cog":113.6,"nav_status":"Under way using engine","ts":"2026-08-03T21:36:00Z","in_corridor":false,"nearest_cable":"DEMO Helsinki-Tallinn A","nearest_m":32439}},{"type":"Feature","geometry":{"type":"Point","coordinates":[24.89539,60.47277]},"properties":{"mmsi":970200008,"name":"DEMO HANKO EXPRESS","ship_type":"Cargo","sog":0.1,"cog":307.2,"nav_status":"At anchor","ts":"2026-08-03T21:36:00Z","in_corridor":false,"nearest_cable":"DEMO Helsinki-Tallinn A","nearest_m":38115}},{"type":"Feature","geometry":{"type":"Point","coordinates":[26.36998,60.1203]},"properties":{"mmsi":970200009,"name":"DEMO MERIKARHU","ship_type":"Tanker","sog":11.1,"cog":64.1,"nav_status":"Moored","ts":"2026-08-03T21:36:00Z","in_corridor":true,"nearest_cable":"DEMO Gulf of Finland East","nearest_m":1761}},{"type":"Feature","geometry":{"type":"Point","coordinates":[24.8848,59.71259]},"properties":{"mmsi":970200010,"name":"DEMO TALLINK VOYAGER","ship_type":"Passenger","sog":14.6,"cog":44.4,"nav_status":"At anchor","ts":"2026-08-03T21:36:00Z","in_corridor":false,"nearest_cable":"DEMO Helsinki-Tallinn A","nearest_m":7603}},{"type":"Feature","geometry":{"type":"Point","coordinates":[24.44717,60.30344]},"properties":{"mmsi":970200011,"name":"DEMO OSTSEE","ship_type":"Other","sog":0.5,"cog":63.1,"nav_status":"Under way using engine","ts":"2026-08-03T21:36:00Z","in_corridor":false,"nearest_cable":"DEMO Helsinki-Tallinn A","nearest_m":31582}},{"type":"Feature","geometry":{"type":"Point","coordinates":[24.93598,59.73938]},"properties":{"mmsi":970200012,"name":"DEMO KOTKA BAY","ship_type":"Cargo","sog":5.6,"cog":221.4,"nav_status":"At anchor","ts":"2026-08-03T21:36:00Z","in_corridor":false,"nearest_cable":"DEMO Helsinki-Tallinn A","nearest_m":9958}},{"type":"Feature","geometry":{"type":"Point","coordinates":[25.11612,59.85401]},"properties":{"mmsi":970200013,"name":"DEMO LOVIISA","ship_type":"Tanker","sog":14.5,"cog":55.8,"nav_status":"Engaged in fishing","ts":"2026-08-03T21:36:00Z","in_corridor":false,"nearest_cable":"DEMO Helsinki-Tallinn A","nearest_m":17881}},{"type":"Feature","geometry":{"type":"Point","coordinates":[26.93221,60.37627]},"properties":{"mmsi":970200014,"name":"DEMO VAASA CARRIER","ship_type":"Passenger","sog":5.4,"cog":100.8,"nav_status":"Moored","ts":"2026-08-03T21:36:00Z","in_corridor":false,"nearest_cable":"DEMO Gulf of Finland East","nearest_m":20152}},{"type":"Feature","geometry":{"type":"Point","coordinates":[25.56658,60.24517]},"properties":{"mmsi":970200015,"name":"DEMO PELLINKI","ship_type":"Other","sog":12.8,"cog":192.5,"nav_status":"Moored","ts":"2026-08-03T21:36:00Z","in_corridor":false,"nearest_cable":"DEMO Helsinki-Tallinn A","nearest_m":39011}},{"type":"Feature","geometry":{"type":"Point","coordinates":[24.07339,59.94605]},"properties":{"mmsi":970200016,"name":"DEMO NORDKAP","ship_type":"Cargo","sog":12.9,"cog":218.8,"nav_status":"Under way using engine","ts":"2026-08-03T21:36:00Z","in_corridor":false,"nearest_cable":"DEMO Helsinki-Tallinn A","nearest_m":41164}},{"type":"Feature","geometry":{"type":"Point","coordinates":[26.19463,59.93712]},"properties":{"mmsi":970200017,"name":"DEMO SUOMI STAR","ship_type":"Tanker","sog":11.0,"cog":303.3,"nav_status":"Moored","ts":"2026-08-03T21:36:00Z","in_corridor":false,"nearest_cable":"DEMO Gulf of Finland East","nearest_m":6187}},{"type":"Feature","geometry":{"type":"Point","coordinates":[25.58285,60.4166]},"properties":{"mmsi":970200018,"name":"DEMO BALTIC TRADER","ship_type":"Passenger","sog":8.8,"cog":88.6,"nav_status":"Under way using engine","ts":"2026-08-03T21:36:00Z","in_corridor":false,"nearest_cable":"DEMO Helsinki-Tallinn A","nearest_m":49326}},{"type":"Feature","geometry":{"type":"Point","coordinates":[24.32239,59.88435]},"properties":{"mmsi":970200019,"name":"DEMO VIRE","ship_type":"Other","sog":13.2,"cog":282.0,"nav_status":"Under way using engine","ts":"2026-08-03T21:36:00Z","in_corridor":false,"nearest_cable":"DEMO Helsinki-Tallinn A","nearest_m":26413}},{"type":"Feature","geometry":{"type":"Point","coordinates":[26.57743,59.92937]},"properties":{"mmsi":970200020,"name":"DEMO KALLAVESI","ship_type":"Cargo","sog":13.2,"cog":52.8,"nav_status":"Moored","ts":"2026-08-03T21:36:00Z","in_corridor":false,"nearest_cable":"DEMO Gulf of Finland East","nearest_m":23727}},{"type":"Feature","geometry":{"type":"Point","coordinates":[24.46889,59.97994]},"properties":{"mmsi":970200021,"name":"DEMO AURORA LINE","ship_type":"Tanker","sog":13.2,"cog":230.7,"nav_status":"Under way using engine","ts":"2026-08-03T21:36:00Z","in_corridor":false,"nearest_cable":"DEMO Helsinki-Tallinn A","nearest_m":20372}},{"type":"Feature","geometry":{"type":"Point","coordinates":[26.55971,60.11576]},"properties":{"mmsi":970200022,"name":"DEMO PORVOO","ship_type":"Passenger","sog":12.7,"cog":103.8,"nav_status":"At anchor","ts":"2026-08-03T21:36:00Z","in_corridor":false,"nearest_cable":"DEMO Gulf of Finland East","nearest_m":10471}},{"type":"Feature","geometry":{"type":"Point","coordinates":[26.16896,59.9723]},"properties":{"mmsi":970200023,"name":"DEMO SAIMAA","ship_type":"Other","sog":12.4,"cog":224.4,"nav_status":"Engaged in fishing","ts":"2026-08-03T21:36:00Z","in_corridor":true,"nearest_cable":"DEMO Gulf of Finland East","nearest_m":2696}},{"type":"Feature","geometry":{"type":"Point","coordinates":[25.67012,60.15355]},"properties":{"mmsi":970200024,"name":"DEMO HANKO EXPRESS","ship_type":"Cargo","sog":0.6,"cog":42.5,"nav_status":"Moored","ts":"2026-08-03T21:36:00Z","in_corridor":false,"nearest_cable":"DEMO Gulf of Finland East","nearest_m":31547}},{"type":"Feature","geometry":{"type":"Point","coordinates":[25.41107,59.74333]},"properties":{"mmsi":970200025,"name":"DEMO MERIKARHU","ship_type":"Tanker","sog":0.3,"cog":104.3,"nav_status":"Under way using engine","ts":"2026-08-03T21:36:00Z","in_corridor":false,"nearest_cable":"DEMO Gulf of Finland East","nearest_m":11636}},{"type":"Feature","geometry":{"type":"Point","coordinates":[25.84379,59.7936]},"properties":{"mmsi":970200026,"name":"DEMO TALLINK VOYAGER","ship_type":"Passenger","sog":14.5,"cog":110.3,"nav_status":"At anchor","ts":"2026-08-03T21:36:00Z","in_corridor":true,"nearest_cable":"DEMO Gulf of Finland East","nearest_m":2349}},{"type":"Feature","geometry":{"type":"Point","coordinates":[24.36863,59.81863]},"properties":{"mmsi":970200027,"name":"DEMO OSTSEE","ship_type":"Other","sog":12.8,"cog":299.2,"nav_status":"Moored","ts":"2026-08-03T21:36:00Z","in_corridor":false,"nearest_cable":"DEMO Helsinki-Tallinn A","nearest_m":22776}},{"type":"Feature","geometry":{"type":"Point","coordinates":[26.03774,59.4722]},"properties":{"mmsi":970200028,"name":"DEMO KOTKA BAY","ship_type":"Cargo","sog":12.3,"cog":95.6,"nav_status":"At anchor","ts":"2026-08-03T21:36:00Z","in_corridor":false,"nearest_cable":"DEMO Gulf of Finland East","nearest_m":35338}},{"type":"Feature","geometry":{"type":"Point","coordinates":[25.60879,59.70251]},"properties":{"mmsi":970200029,"name":"DEMO LOVIISA","ship_type":"Tanker","sog":10.8,"cog":202.5,"nav_status":"Under way using engine","ts":"2026-08-03T21:36:00Z","in_corridor":true,"nearest_cable":"DEMO Gulf of Finland East","nearest_m":566}},{"type":"Feature","geometry":{"type":"Point","coordinates":[24.52252,60.14576]},"properties":{"mmsi":970200030,"name":"DEMO VAASA CARRIER","ship_type":"Passenger","sog":12.6,"cog":91.3,"nav_status":"Moored","ts":"2026-08-03T21:36:00Z","in_corridor":false,"nearest_cable":"DEMO Helsinki-Tallinn A","nearest_m":20883}},{"type":"Feature","geometry":{"type":"Point","coordinates":[26.54244,60.49827]},"properties":{"mmsi":970200031,"name":"DEMO PELLINKI","ship_type":"Other","sog":0.4,"cog":20.2,"nav_status":"Under way using engine","ts":"2026-08-03T21:36:00Z","in_corridor":false,"nearest_cable":"DEMO Gulf of Finland East","nearest_m":22272}},{"type":"Feature","geometry":{"type":"Point","coordinates":[25.90523,59.95154]},"properties":{"mmsi":970200032,"name":"DEMO NORDKAP","ship_type":"Cargo","sog":12.9,"cog":75.9,"nav_status":"Under way using engine","ts":"2026-08-03T21:36:00Z","in_corridor":false,"nearest_cable":"DEMO Gulf of Finland East","nearest_m":7685}},{"type":"Feature","geometry":{"type":"Point","coordinates":[24.91947,59.83646]},"properties":{"mmsi":970200033,"name":"DEMO SUOMI STAR","ship_type":"Tanker","sog":0.6,"cog":228.3,"nav_status":"Engaged in fishing","ts":"2026-08-03T21:36:00Z","in_corridor":false,"nearest_cable":"DEMO Helsinki-Tallinn A","nearest_m":7345}},{"type":"Feature","geometry":{"type":"Point","coordinates":[26.87142,59.71624]},"properties":{"mmsi":970200034,"name":"DEMO BALTIC TRADER","ship_type":"Passenger","sog":14.5,"cog":91.5,"nav_status":"Under way using engine","ts":"2026-08-03T21:36:00Z","in_corridor":false,"nearest_cable":"DEMO Gulf of Finland East","nearest_m":51167}},{"type":"Feature","geometry":{"type":"Point","coordinates":[24.95625,59.46821]},"properties":{"mmsi":970200035,"name":"DEMO VIRE","ship_type":"Other","sog":12.8,"cog":257.8,"nav_status":"Moored","ts":"2026-08-03T21:36:00Z","in_corridor":false,"nearest_cable":"DEMO Helsinki-Tallinn A","nearest_m":16136}},{"type":"Feature","geometry":{"type":"Point","coordinates":[26.1293,59.81981]},"properties":{"mmsi":970200036,"name":"DEMO KALLAVESI","ship_type":"Cargo","sog":0.0,"cog":310.3,"nav_status":"At anchor","ts":"2026-08-03T21:36:00Z","in_corridor":false,"nearest_cable":"DEMO Gulf of Finland East","nearest_m":11440}},{"type":"Feature","geometry":{"type":"Point","coordinates":[26.62126,60.40519]},"properties":{"mmsi":970200037,"name":"DEMO AURORA LINE","ship_type":"Tanker","sog":14.5,"cog":56.3,"nav_status":"At anchor","ts":"2026-08-03T21:36:00Z","in_corridor":false,"nearest_cable":"DEMO Gulf of Finland East","nearest_m":11755}},{"type":"Feature","geometry":{"type":"Point","coordinates":[25.08651,60.09512]},"properties":{"mmsi":970200038,"name":"DEMO PORVOO","ship_type":"Passenger","sog":9.2,"cog":52.9,"nav_status":"Under way using engine","ts":"2026-08-03T21:36:00Z","in_corridor":false,"nearest_cable":"DEMO Helsinki-Tallinn A","nearest_m":10864}},{"type":"Feature","geometry":{"type":"Point","coordinates":[24.91749,59.89389]},"properties":{"mmsi":970200039,"name":"DEMO SAIMAA","ship_type":"Other","sog":9.0,"cog":78.8,"nav_status":"Engaged in fishing","ts":"2026-08-03T21:36:00Z","in_corridor":false,"nearest_cable":"DEMO Helsinki-Tallinn A","nearest_m":6147}},{"type":"Feature","geometry":{"type":"Point","coordinates":[25.08474,59.59484]},"properties":{"mmsi":970200040,"name":"DEMO HANKO EXPRESS","ship_type":"Cargo","sog":0.1,"cog":93.6,"nav_status":"Moored","ts":"2026-08-03T21:36:00Z","in_corridor":false,"nearest_cable":"DEMO Helsinki-Tallinn A","nearest_m":20010}},{"type":"Feature","geometry":{"type":"Point","coordinates":[26.27444,59.47283]},"properties":{"mmsi":970200041,"name":"DEMO MERIKARHU","ship_type":"Tanker","sog":12.7,"cog":247.3,"nav_status":"Moored","ts":"2026-08-03T21:36:00Z","in_corridor":false,"nearest_cable":"DEMO Gulf of Finland East","nearest_m":44634}},{"type":"Feature","geometry":{"type":"Point","coordinates":[26.32918,59.55801]},"properties":{"mmsi":970200042,"name":"DEMO TALLINK VOYAGER","ship_type":"Passenger","sog":5.4,"cog":196.3,"nav_status":"Under way using engine","ts":"2026-08-03T21:36:00Z","in_corridor":false,"nearest_cable":"DEMO Gulf of Finland East","nearest_m":40018}},{"type":"Feature","geometry":{"type":"Point","coordinates":[23.98129,59.85016]},"properties":{"mmsi":970200043,"name":"DEMO OSTSEE","ship_type":"Other","sog":11.1,"cog":261.9,"nav_status":"Under way using engine","ts":"2026-08-03T21:36:00Z","in_corridor":false,"nearest_cable":"DEMO Helsinki-Tallinn A","nearest_m":44701}},{"type":"Feature","geometry":{"type":"Point","coordinates":[26.52599,59.88964]},"properties":{"mmsi":970200044,"name":"DEMO KOTKA BAY","ship_type":"Cargo","sog":14.3,"cog":77.9,"nav_status":"Engaged in fishing","ts":"2026-08-03T21:36:00Z","in_corridor":false,"nearest_cable":"DEMO Gulf of Finland East","nearest_m":24120}},{"type":"Feature","geometry":{"type":"Point","coordinates":[24.66439,60.20142]},"properties":{"mmsi":970200045,"name":"DEMO LOVIISA","ship_type":"Tanker","sog":0.4,"cog":319.7,"nav_status":"Engaged in fishing","ts":"2026-08-03T21:36:00Z","in_corridor":false,"nearest_cable":"DEMO Helsinki-Tallinn A","nearest_m":15262}},{"type":"Feature","geometry":{"type":"Point","coordinates":[24.45479,60.33575]},"properties":{"mmsi":970200046,"name":"DEMO VAASA CARRIER","ship_type":"Passenger","sog":12.5,"cog":64.6,"nav_status":"At anchor","ts":"2026-08-03T21:36:00Z","in_corridor":false,"nearest_cable":"DEMO Helsinki-Tallinn A","nearest_m":33578}},{"type":"Feature","geometry":{"type":"Point","coordinates":[25.82098,59.6889]},"properties":{"mmsi":970200047,"name":"DEMO PELLINKI","ship_type":"Other","sog":10.8,"cog":276.9,"nav_status":"Under way using engine","ts":"2026-08-03T21:36:00Z","in_corridor":false,"nearest_cable":"DEMO Gulf of Finland East","nearest_m":9600}}]}